start=new Date('2021-10-21T00:00:00.000Z').valueOf();
sats=[{"TLE_LINE2":"2 49170  70.0020  23.3824 0003689 288.0824 275.3914 15.69771136  3664","REF_FRAME":"TEME","DECAY_DATE":null,"INCLINATION":"70.0020","MEAN_MOTION":"15.69771136","OBJECT_ID":"2021-082AS","PERIOD":"91.733","CENTER_NAME":"EARTH","ARG_OF_PERICENTER":"288.0824","SEMIMAJOR_AXIS":"6737.689","PERIAPSIS":"357.068","GP_ID":"187758318","EPHEMERIS_TYPE":"0","COUNTRY_CODE":"US","MEAN_MOTION_DOT":"-0.00038088","TLE_LINE1":"1 49170U 21082AS  21293.91667824 -.00038088  00000-0 -31841-3 0  9993","MEAN_ANOMALY":"275.3914","RCS_SIZE":"LARGE","BSTAR":"-0.00031841000000","TIME_SYSTEM":"UTC","RA_OF_ASC_NODE":"23.3824","LAUNCH_DATE":"2021-09-14","SITE":"AFWTR","CLASSIFICATION_TYPE":"U","REV_AT_EPOCH":"366","OBJECT_TYPE":"PAYLOAD","NORAD_CAT_ID":"49170","FILE":"3175135","MEAN_ELEMENT_THEORY":"SGP4","OBJECT_NAME":"STARLINK-3074","APOAPSIS":"362.039","EPOCH":"2021-10-20T22:00:00.999936","ELEMENT_SET_NO":"999","ECCENTRICITY":"0.00036890","MEAN_MOTION_DDOT":"0.0000000000000"},{"REV_AT_EPOCH":"365","CLASSIFICATION_TYPE":"U","SITE":"AFWTR","LAUNCH_DATE":"2021-09-14","RA_OF_ASC_NODE":"23.3938","TIME_SYSTEM":"UTC","BSTAR":"-0.00031462000000","RCS_SIZE":"LARGE","MEAN_ANOMALY":"267.4323","TLE_LINE1":"1 49171U 21082AT  21293.91667824 -.00037510  00000-0 -31462-3 0  9992","ECCENTRICITY":"0.00037940","MEAN_MOTION_DDOT":"0.0000000000000","ELEMENT_SET_NO":"999","EPOCH":"2021-10-20T22:00:00.999936","APOAPSIS":"362.351","OBJECT_NAME":"STARLINK-3107","MEAN_ELEMENT_THEORY":"SGP4","FILE":"3175135","NORAD_CAT_ID":"49171","OBJECT_TYPE":"PAYLOAD","CENTER_NAME":"EARTH","PERIOD":"91.738","OBJECT_ID":"2021-082AT","MEAN_MOTION":"15.69687140","INCLINATION":"70.0007","DECAY_DATE":null,"REF_FRAME":"TEME","TLE_LINE2":"2 49171  70.0007  23.3938 0003794 287.5122 267.4323 15.69687140  3654","MEAN_MOTION_DOT":"-0.00037510","COUNTRY_CODE":"US","EPHEMERIS_TYPE":"0","GP_ID":"187757648","PERIAPSIS":"357.238","SEMIMAJOR_AXIS":"6737.929","ARG_OF_PERICENTER":"287.5122"},{"INCLINATION":"70.0012","DECAY_DATE":null,"REF_FRAME":"TEME","TLE_LINE2":"2 49172  70.0012  23.3805 0003606 287.5945 278.0142 15.69755936  3666","PERIOD":"91.734","CENTER_NAME":"EARTH","OBJECT_ID":"2021-082AU","MEAN_MOTION":"15.69755936","SEMIMAJOR_AXIS":"6737.732","ARG_OF_PERICENTER":"287.5945","MEAN_MOTION_DOT":"-0.00038764","COUNTRY_CODE":"US","EPHEMERIS_TYPE":"0","GP_ID":"187757872","PERIAPSIS":"357.168","BSTAR":"-0.00032433000000","RCS_SIZE":"LARGE","MEAN_ANOMALY":"278.0142","TLE_LINE1":"1 49172U 21082AU  21293.91667824 -.00038764  00000-0 -32433-3 0  9994","CLASSIFICATION_TYPE":"U","REV_AT_EPOCH":"366","SITE":"AFWTR","LAUNCH_DATE":"2021-09-14","RA_OF_ASC_NODE":"23.3805","TIME_SYSTEM":"UTC","MEAN_ELEMENT_THEORY":"SGP4","FILE":"3175135","NORAD_CAT_ID":"49172","OBJECT_TYPE":"PAYLOAD","MEAN_MOTION_DDOT":"0.0000000000000","ECCENTRICITY":"0.00036060","ELEMENT_SET_NO":"999","EPOCH":"2021-10-20T22:00:00.999936","OBJECT_NAME":"STARLINK-3091","APOAPSIS":"362.027"},{"OBJECT_NAME":"STARLINK-3045","APOAPSIS":"361.957","EPOCH":"2021-10-20T22:00:00.999936","ELEMENT_SET_NO":"999","MEAN_MOTION_DDOT":"0.0000000000000","ECCENTRICITY":"0.00035320","OBJECT_TYPE":"PAYLOAD","NORAD_CAT_ID":"49173","FILE":"3175135","MEAN_ELEMENT_THEORY":"SGP4","TIME_SYSTEM":"UTC","LAUNCH_DATE":"2021-09-14","RA_OF_ASC_NODE":"23.0707","SITE":"AFWTR","CLASSIFICATION_TYPE":"U","REV_AT_EPOCH":"366","TLE_LINE1":"1 49173U 21082AV  21293.91667824 -.00036382  00000-0 -30412-3 0  9994","MEAN_ANOMALY":"180.0254","RCS_SIZE":"LARGE","BSTAR":"-0.00030412000000","PERIAPSIS":"357.197","GP_ID":"187757760","EPHEMERIS_TYPE":"0","COUNTRY_CODE":"US","MEAN_MOTION_DOT":"-0.00036382","ARG_OF_PERICENTER":"291.9713","SEMIMAJOR_AXIS":"6737.712","MEAN_MOTION":"15.69762952","OBJECT_ID":"2021-082AV","CENTER_NAME":"EARTH","PERIOD":"91.734","TLE_LINE2":"2 49173  70.0010  23.0707 0003532 291.9713 180.0254 15.69762952  3665","REF_FRAME":"TEME","DECAY_DATE":null,"INCLINATION":"70.0010"},{"OBJECT_TYPE":"PAYLOAD","NORAD_CAT_ID":"49174","MEAN_ELEMENT_THEORY":"SGP4","FILE":"3175135","ELEMENT_SET_NO":"999","MEAN_MOTION_DDOT":"0.0000000000000","ECCENTRICITY":"0.00035790","APOAPSIS":"362.041","OBJECT_NAME":"STARLINK-3047","EPOCH":"2021-10-20T22:00:00.999936","MEAN_ANOMALY":"272.4622","TLE_LINE1":"1 49174U 21082AW  21293.91667824 -.00037896  00000-0 -31715-3 0  9993","BSTAR":"-0.00031715000000","RCS_SIZE":"LARGE","TIME_SYSTEM":"UTC","LAUNCH_DATE":"2021-09-14","RA_OF_ASC_NODE":"23.3850","REV_AT_EPOCH":"366","CLASSIFICATION_TYPE":"U","SITE":"AFWTR","ARG_OF_PERICENTER":"288.7827","SEMIMAJOR_AXIS":"6737.765","PERIAPSIS":"357.218","GP_ID":"187758419","EPHEMERIS_TYPE":"0","MEAN_MOTION_DOT":"-0.00037896","COUNTRY_CODE":"US","DECAY_DATE":null,"INCLINATION":"70.0020","TLE_LINE2":"2 49174  70.0020  23.3850 0003579 288.7827 272.4622 15.69744595  3668","REF_FRAME":"TEME","OBJECT_ID":"2021-082AW","MEAN_MOTION":"15.69744595","CENTER_NAME":"EARTH","PERIOD":"91.735"},{"APOAPSIS":"361.945","OBJECT_NAME":"STARLINK-3087","EPOCH":"2021-10-20T22:00:00.999936","ELEMENT_SET_NO":"999","MEAN_MOTION_DDOT":"0.0000000000000","ECCENTRICITY":"0.00034830","OBJECT_TYPE":"PAYLOAD","NORAD_CAT_ID":"49175","FILE":"3175135","MEAN_ELEMENT_THEORY":"SGP4","TIME_SYSTEM":"UTC","LAUNCH_DATE":"2021-09-14","RA_OF_ASC_NODE":"23.3775","SITE":"AFWTR","CLASSIFICATION_TYPE":"U","REV_AT_EPOCH":"366","TLE_LINE1":"1 49175U 21082AX  21293.91667824 -.00037162  00000-0 -31081-3 0  9996","MEAN_ANOMALY":"277.4933","RCS_SIZE":"LARGE","BSTAR":"-0.00031081000000","PERIAPSIS":"357.251","GP_ID":"187757996","EPHEMERIS_TYPE":"0","COUNTRY_CODE":"US","MEAN_MOTION_DOT":"-0.00037162","ARG_OF_PERICENTER":"290.1919","SEMIMAJOR_AXIS":"6737.733","MEAN_MOTION":"15.69755637","OBJECT_ID":"2021-082AX","CENTER_NAME":"EARTH","PERIOD":"91.734","TLE_LINE2":"2 49175  70.0018  23.3775 0003483 290.1919 277.4933 15.69755637  3664","REF_FRAME":"TEME","DECAY_DATE":null,"INCLINATION":"70.0018"},{"MEAN_MOTION":"15.69725637","OBJECT_ID":"2021-082AY","CENTER_NAME":"EARTH","PERIOD":"91.736","TLE_LINE2":"2 49176  70.0007  23.3680 0003557 290.8408 285.4421 15.69725637  3668","REF_FRAME":"TEME","DECAY_DATE":null,"INCLINATION":"70.0007","PERIAPSIS":"357.287","GP_ID":"187758218","EPHEMERIS_TYPE":"0","COUNTRY_CODE":"US","MEAN_MOTION_DOT":"-0.00064160","ARG_OF_PERICENTER":"290.8408","SEMIMAJOR_AXIS":"6737.819","TIME_SYSTEM":"UTC","LAUNCH_DATE":"2021-09-14","RA_OF_ASC_NODE":"23.3680","SITE":"AFWTR","REV_AT_EPOCH":"366","CLASSIFICATION_TYPE":"U","TLE_LINE1":"1 49176U 21082AY  21293.91667824 -.00064160  00000-0 -54029-3 0  9992","MEAN_ANOMALY":"285.4421","RCS_SIZE":"LARGE","BSTAR":"-0.00054029000000","OBJECT_NAME":"STARLINK-3069","APOAPSIS":"362.081","EPOCH":"2021-10-20T22:00:00.999936","ELEMENT_SET_NO":"999","MEAN_MOTION_DDOT":"0.0000000000000","ECCENTRICITY":"0.00035570","OBJECT_TYPE":"PAYLOAD","NORAD_CAT_ID":"49176","FILE":"3175135","MEAN_ELEMENT_THEORY":"SGP4"},{"TIME_SYSTEM":"UTC","RA_OF_ASC_NODE":"23.3765","LAUNCH_DATE":"2021-09-14","SITE":"AFWTR","REV_AT_EPOCH":"365","CLASSIFICATION_TYPE":"U","TLE_LINE1":"1 49177U 21082AZ  21293.91667824 -.00036720  00000-0 -30712-3 0  9997","MEAN_ANOMALY":"278.8613","RCS_SIZE":"LARGE","BSTAR":"-0.00030712000000","OBJECT_NAME":"STARLINK-3103","APOAPSIS":"362.085","EPOCH":"2021-10-20T22:00:00.999936","ELEMENT_SET_NO":"999","MEAN_MOTION_DDOT":"0.0000000000000","ECCENTRICITY":"0.00036700","OBJECT_TYPE":"PAYLOAD","NORAD_CAT_ID":"49177","FILE":"3175135","MEAN_ELEMENT_THEORY":"SGP4","MEAN_MOTION":"15.69750727","OBJECT_ID":"2021-082AZ","PERIOD":"91.734","CENTER_NAME":"EARTH","TLE_LINE2":"2 49177  70.0011  23.3765 0003670 290.9444 278.8613 15.69750727  3651","REF_FRAME":"TEME","DECAY_DATE":null,"INCLINATION":"70.0011","PERIAPSIS":"357.139","EPHEMERIS_TYPE":"0","GP_ID":"187758107","COUNTRY_CODE":"US","MEAN_MOTION_DOT":"-0.00036720","ARG_OF_PERICENTER":"290.9444","SEMIMAJOR_AXIS":"6737.747"},{"OBJECT_ID":"2021-082BA","MEAN_MOTION":"15.69703421","CENTER_NAME":"EARTH","PERIOD":"91.737","INCLINATION":"70.0004","DECAY_DATE":null,"REF_FRAME":"TEME","TLE_LINE2":"2 49178  70.0004  23.3711 0003666 285.9303 288.0879 15.69703421  3665","GP_ID":"187758319","EPHEMERIS_TYPE":"0","PERIAPSIS":"357.277","MEAN_MOTION_DOT":"0.00016847","COUNTRY_CODE":"US","ARG_OF_PERICENTER":"285.9303","SEMIMAJOR_AXIS":"6737.883","RA_OF_ASC_NODE":"23.3711","LAUNCH_DATE":"2021-09-14","TIME_SYSTEM":"UTC","REV_AT_EPOCH":"366","CLASSIFICATION_TYPE":"U","SITE":"AFWTR","MEAN_ANOMALY":"288.0879","TLE_LINE1":"1 49178U 21082BA  21293.91667824  .00016847  00000-0  14288-3 0  9994","BSTAR":"0.00014288000000","RCS_SIZE":"LARGE","MEAN_MOTION_DDOT":"0.0000000000000","ECCENTRICITY":"0.00036660","ELEMENT_SET_NO":"999","EPOCH":"2021-10-20T22:00:00.999936","OBJECT_NAME":"STARLINK-3086","APOAPSIS":"362.218","NORAD_CAT_ID":"49178","OBJECT_TYPE":"PAYLOAD","MEAN_ELEMENT_THEORY":"SGP4","FILE":"3175135"},{"PERIOD":"91.735","CENTER_NAME":"EARTH","OBJECT_ID":"2021-082BB","MEAN_MOTION":"15.69738323","DECAY_DATE":null,"INCLINATION":"70.0019","TLE_LINE2":"2 49179  70.0019  23.3732 0003804 286.9957 284.9288 15.69738323  3652","REF_FRAME":"TEME","MEAN_MOTION_DOT":"-0.00037762","COUNTRY_CODE":"US","PERIAPSIS":"357.085","EPHEMERIS_TYPE":"0","GP_ID":"187757649","SEMIMAJOR_AXIS":"6737.783","ARG_OF_PERICENTER":"286.9957","REV_AT_EPOCH":"365","CLASSIFICATION_TYPE":"U","SITE":"AFWTR","TIME_SYSTEM":"UTC","LAUNCH_DATE":"2021-09-14","RA_OF_ASC_NODE":"23.3732","BSTAR":"-0.00031608000000","RCS_SIZE":"LARGE","MEAN_ANOMALY":"284.9288","TLE_LINE1":"1 49179U 21082BB  21293.91667824 -.00037762  00000-0 -31608-3 0  9991","ELEMENT_SET_NO":"999","ECCENTRICITY":"0.00038040","MEAN_MOTION_DDOT":"0.0000000000000","APOAPSIS":"362.211","OBJECT_NAME":"STARLINK-3043","EPOCH":"2021-10-20T22:00:00.999936","MEAN_ELEMENT_THEORY":"SGP4","FILE":"3175135","OBJECT_TYPE":"PAYLOAD","NORAD_CAT_ID":"49179"}];
